# From MPEC 2016-K18
332P-C/Ikeya-Murakami,e,9.3824,152.3011,3.7381,3.086679,0.1817468,0.48951962,188.9897,06/23.0/2024,2000,g 16.5,4.0
# From MPEC 2016-ED0
332P-D/Ikeya-Murakami,e,9.3761,3.7923,152.4393,3.081138,0.1822373,0.48977814,359.9486,03/17.0/2016,2000,g 19.0,4.0
# From MPEC 2016-ED0
332P-E/Ikeya-Murakami,e,9.3774,3.8228,152.2825,3.079877,0.1823493,0.48922008,359.9889,03/17.0/2016,2000,g 21.0,4.0
# From MPEC 2016-ED0
332P-F/Ikeya-Murakami,e,9.5293,3.4757,152.8203,3.163214,0.1751908,0.49918860,359.8501,03/17.0/2016,2000,g 21.0,4.0
# From MPEC 2016-ED0
332P-G/Ikeya-Murakami,e,9.2523,3.6955,154.4000,3.050519,0.1849880,0.49200362,359.9006,03/19.0/2016,2000,g 19.0,4.0
# From MPC100285
332P-H/Ikeya-Murakami,e,9.3829,152.3017,3.7378,3.086861,0.1817308,0.48955531,188.9078,06/23.0/2024,2000,g 19.0,4.0
# From MPEC 2016-ED0
332P-I/Ikeya-Murakami,e,9.3791,3.8048,152.3297,3.081767,0.1821815,0.48955490,359.9360,03/17.0/2016,2000,g 20.5,2.0
# From MPEC 2016-EI8
332P-J/Ikeya-Murakami,e,9.4296,3.6729,152.7712,3.115165,0.1792596,0.49429435,359.8613,03/17.0/2016,2000,g 20.5,2.0
# From MPEC 2024-L77
333P/LINEAR,e,132.0218,115.7050,26.0159,4.220370,0.1136785,0.73628465,341.8909,06/23.0/2024,2000,g 15.0,4.0
# From MPEC 2023-J29
334P/NEAT,e,20.3736,90.4636,90.0361,6.828936,0.0552299,0.35120966,142.3216,06/23.0/2024,2000,g 10.5,4.0
# From MPEC 2023-M14
335P/Gibbs,e,7.2945,330.8124,162.3010,3.577661,0.1456483,0.54655374,99.1660,06/23.0/2024,2000,g 16.8,4.0
# From MPC105244
336P/McNaught,e,17.8278,298.2118,308.6300,5.037896,0.0871626,0.44411855,235.8094,06/23.0/2024,2000,g 13.5,4.0
# From MPEC 2024-A43
337P/WISE,e,15.6005,104.7870,162.5558,3.296656,0.1646621,0.49920928,118.6069,06/23.0/2024,2000,g 17.0,4.0
# From MPEC 2023-J29
338P/McNaught,e,25.3865,9.7933,4.5773,3.891986,0.1283652,0.41217128,354.7384,06/23.0/2024,2000,g 12.0,4.0
# From MPC101101
339P/Gibbs,e,5.7332,27.4741,172.6898,3.699824,0.1384945,0.63564671,41.1431,06/23.0/2024,2000,g 17.0,4.0
# From MPC133426
340P/Boattini,e,2.0786,291.6641,36.0600,4.248603,0.1125472,0.28030081,311.3565,06/23.0/2024,2000,g 14.3,4.0
# From MPEC 2023-J29
341P/Gibbs,e,3.7964,29.9613,312.3381,4.287425,0.1110221,0.41539092,326.2895,06/23.0/2024,2000,g 12.5,4.0
# From MPC101101
342P/SOHO,e,11.6945,73.3214,27.6342,3.041098,0.1858482,0.98293256,0.0000,02/07.5255/2027,2000,g  9.0,4.0
# From MPEC 2023-J29
343P/NEAT-LONEOS,e,5.5969,257.0593,137.5878,5.457462,0.0773069,0.58520265,208.5271,06/23.0/2024,2000,g 14.0,4.0
# From MPEC 2023-J29
344P/Read,e,3.4989,273.1006,140.5654,4.857267,0.0920696,0.42378306,256.2844,06/23.0/2024,2000,g 13.0,4.0
# From MPEC 2022-K19
345P/LINEAR,e,2.7280,154.5950,196.6766,4.031506,0.1217596,0.22120994,351.5974,06/23.0/2024,2000,g 12.0,4.0
# From MPEC 2022-K19
346P/Catalina,e,22.2176,102.4557,336.0228,4.470287,0.1042800,0.50386267,279.7908,06/23.0/2024,2000,g 14.0,4.0
# From MPEC 2024-M41
347P/PANSTARRS,e,11.7639,260.9878,98.3078,3.605367,0.1439726,0.38683234,48.8491,06/23.0/2024,2000,g 15.0,4.0
# From MPEC 2022-ED3
348P/PANSTARRS,e,17.7382,312.9273,135.7219,3.151885,0.1761361,0.30739511,151.6564,06/23.0/2024,2000,g 14.0,4.0
# From MPEC 2024-LE0
349P/Lemmon,e,5.4885,331.7491,255.7883,3.578527,0.1455954,0.29856678,3.9165,06/23.0/2024,2000,g 14.0,4.0
# From MPC111775
350P/McNaught,e,7.3639,65.2933,139.9677,4.081357,0.1195356,0.09444876,284.4545,06/23.0/2024,2000,g 14.0,4.0
# From MPC105244
351P/Wiegert-PANSTARRS,e,12.7752,352.6791,283.3170,4.440661,0.1053253,0.29476836,330.8862,06/23.0/2024,2000,g 12.5,4.0
# From MPEC 2023-J29
352P/Skiff,e,21.0119,28.0148,309.4052,6.652675,0.0574394,0.61672862,146.9827,06/23.0/2024,2000,g 13.2,4.0
# From MPEC 2020-AA5
353P/McNaught,e,28.4167,121.5258,230.4910,4.170650,0.1157174,0.46995076,274.5607,06/23.0/2024,2000,g 14.5,4.0
# From MPEC 2024-EF7
354P/LINEAR,e,5.2508,320.0707,132.8164,2.289868,0.2844385,0.12449421,71.9741,06/23.0/2024,2000,g 15.5,4.0
# From MPEC 2023-CD7
355P/LINEAR-NEAT,e,11.0469,51.4341,336.3214,3.470087,0.1524732,0.50816000,12.5958,06/23.0/2024,2000,g 15.5,2.0
# From MPEC 2022-F14
356P/WISE,e,9.6403,160.8083,226.1481,4.154189,0.1164058,0.35605689,276.2981,06/23.0/2024,2000,g 14.0,4.0
# From MPC114609
357P/Hill,e,6.3143,44.5794,1.4569,4.455956,0.1047835,0.43613766,231.8299,06/23.0/2024,2000,g 15.5,4.0
# From MPEC 2024-EF7
358P/PANSTARRS,e,11.0655,85.6654,299.5498,3.148776,0.1763971,0.23968782,39.8214,06/23.0/2024,2000,g 18.0,4.0
# From MPC110086
359P/LONEOS,e,10.2634,149.7690,200.2967,4.641362,0.0985680,0.32351611,245.9476,06/23.0/2024,2000,g 13.5,4.0
# From MPC108599
360P/WISE,e,24.1087,2.2123,354.2415,3.696972,0.1386548,0.49913694,345.7536,06/23.0/2024,2000,g 19.5,6.0
# From MPEC 2023-CD7
361P/Spacewatch,e,13.9018,203.2527,219.0667,4.933501,0.0899438,0.43957767,195.9609,06/23.0/2024,2000,g 12.0,4.0
# From MPC114609
363P/Lemmon,e,5.3895,146.6433,340.8646,3.576288,0.1457321,0.51883326,339.1331,06/23.0/2024,2000,g 17.5,4.0
# From MPEC 2024-M41
364P/PANSTARRS,e,12.1144,46.1457,212.1901,2.887967,0.2008241,0.72165687,81.4938,06/23.0/2024,2000,g 17.0,2.0
# From MPC111775
365P/PANSTARRS,e,9.8497,86.6565,67.4260,3.156443,0.1757548,0.58143949,45.2743,06/23.0/2024,2000,g 17.0,4.0
# From MPC114610
366P/Spacewatch,e,8.8569,70.7231,153.0172,3.498796,0.1506004,0.34836999,326.5723,06/23.0/2024,2000,g 15.0,4.0
# From MPC112395
367P/Catalina,e,8.4597,58.6610,172.7201,3.510442,0.1498516,0.27989826,329.6307,06/23.0/2024,2000,g 17.5,2.0
# From MPC114610
368P/NEAT,e,15.4818,257.8628,118.9634,5.532887,0.0757315,0.62626724,159.5659,06/23.0/2024,2000,g 14.0,4.0
# From MPC114610
369P/Hill,e,10.3224,47.2968,13.1969,4.379658,0.1075335,0.55592470,223.0472,06/23.0/2024,2000,g 15.0,4.0
# From MPEC 2021-F20
370P/NEAT,e,19.4237,55.0815,356.7488,6.437637,0.0603413,0.61550347,132.9042,06/23.0/2024,2000,g 13.0,4.0
# From MPC114610
371P/LINEAR-Skiff,e,17.3851,67.2831,308.5663,4.180464,0.1153101,0.47689064,240.4720,06/23.0/2024,2000,g 16.0,4.0
# From MPEC 2020-K19
372P/McNaught,e,9.5070,27.5515,326.0205,4.511011,0.1028711,0.15171605,212.8152,06/23.0/2024,2000,g 13.5,4.0
# From MPEC 2021-F20
373P/Rinner,e,13.7703,231.9447,221.0656,3.798516,0.1331322,0.39363957,252.9734,06/23.0/2024,2000,g 14.5,4.0
# From MPC114610
374P/Larson,e,10.7646,7.8996,51.5162,4.971032,0.0889271,0.46377408,176.7176,06/23.0/2024,2000,g 14.0,4.0
# From MPEC 2021-F20
375P/Hill,e,17.3670,359.8861,119.3903,5.546675,0.0754493,0.65983858,151.6300,06/23.0/2024,2000,g 16.0,4.0
# From MPEC 2022-K19
376P/LONEOS,e,1.1663,312.8703,285.4096,5.757233,0.0713482,0.51393923,124.3467,06/23.0/2024,2000,g 12.5,4.0
# From MPEC 2022-N37
377P/Scotti,e,9.0249,226.0268,354.8797,6.697283,0.0568665,0.25110286,82.1407,06/23.0/2024,2000,g  9.5,4.0
# From MPEC 2024-D33
378P/McNaught,e,19.1416,93.8218,193.3966,6.293108,0.0624319,0.46504941,84.3555,06/23.0/2024,2000,g 12.0,4.0
# From MPC115889
379P/Spacewatch,e,12.4420,30.5233,184.3394,3.489302,0.1512154,0.34983642,267.8642,06/23.0/2024,2000,g 15.0,4.0
# From MPEC 2023-C45
380P/PANSTARRS,e,8.0171,128.1049,87.9079,4.426651,0.1058257,0.33718287,200.4404,06/23.0/2024,2000,g 12.5,4.0
# From MPEC 2021-J28
381P/LINEAR-Spacewatch,e,28.3586,173.2948,173.8501,7.143581,0.0516214,0.68110029,89.3894,06/23.0/2024,2000,g 17.5,2.0
# From MPEC 2024-EF7
382P/Larson,e,8.2722,171.9020,162.3222,5.944953,0.0679957,0.27080454,64.4489,06/23.0/2024,2000,g  8.0,4.0
# From MPEC 2022-OB6
383P/Christensen,e,12.3205,207.8519,133.7538,3.548110,0.1474716,0.59876443,250.9549,06/23.0/2024,2000,g 18.0,4.0
# From MPEC 2022-OB6
384P/Kowalski,e,7.2833,354.1997,37.7114,2.898264,0.1997548,0.61628909,342.3931,06/23.0/2024,2000,g 19.5,4.0
# From MPEC 2021-F20
385P/Hill,e,16.8272,357.0633,44.4093,4.288765,0.1109700,0.40211029,193.2061,06/23.0/2024,2000,g 13.0,4.0
# From MPEC 2021-L04
386P/PANSTARRS,e,15.2412,134.9171,353.0811,4.050289,0.1209136,0.41711212,169.6761,06/23.0/2024,2000,g 14.5,4.0
# From MPEC 2021-J28
387P/Boattini,e,8.9363,259.2424,162.8299,4.797117,0.0938066,0.73710441,164.1377,06/23.0/2024,2000,g 15.0,4.0
# From MPEC 2021-S45
388P/Gibbs,e,23.8888,37.0292,42.3249,5.240568,0.0821555,0.61930131,147.4043,06/23.0/2024,2000,g 13.0,4.0
# From MPEC 2022-OB6
389P/Siding Spring,e,160.0855,218.8791,249.3778,5.632407,0.0737332,0.70516010,120.6420,06/23.0/2024,2000,g 16.0,4.0
# From MPEC 2024-EF7
390P/Gibbs,e,18.5367,152.2357,232.4931,5.815274,0.0702828,0.70715678,109.1592,06/23.0/2024,2000,g 12.0,4.0
# From MPEC 2021-F20
391P/Kowalski,e,21.2602,124.7864,187.1673,4.688750,0.0970775,0.11872957,222.1777,06/23.0/2024,2000,g  8.0,4.0
# From MPEC 2021-J28
392P/LINEAR,e,4.9311,24.8434,71.9023,6.140943,0.0647666,0.68379559,99.9247,06/23.0/2024,2000,g 14.5,4.0
# From MPEC 2023-T65
393P/Spacewatch-Hill,e,16.7869,36.3937,329.1863,4.797575,0.0937932,0.11976194,159.0931,06/23.0/2024,2000,g 11.0,4.0
# From MPEC 2020-KB7
394P/PANSTARRS,e,8.5293,98.1228,54.4035,4.328213,0.1094564,0.36787434,182.4992,06/23.0/2024,2000,g 16.0,2.4
# From MPEC 2024-C04
395P/Catalina-NEAT,e,3.5813,221.0328,100.0371,7.188851,0.0511346,0.41438976,43.6581,06/23.0/2024,2000,g 10.0,4.0
# From MPEC 2020-KB7
396P/,e,5.4399,136.6220,8.3086,6.800145,0.0555811,0.41648621,97.8806,06/23.0/2024,2000,g 12.0,4.0
# From MPEC 2022-OB6
397P/Lemmon,e,10.9246,8.2238,14.5649,3.831400,0.1314219,0.40497836,192.3732,06/23.0/2024,2000,g 12.0,4.0
# From MPEC 2021-L04
398P/Boattini,e,11.0232,320.1459,127.5105,3.125390,0.1783807,0.58362506,227.1220,06/23.0/2024,2000,g 15.5,4.0
# From MPEC 2023-XP6
399P/PANSTARRS,e,13.3208,207.1290,214.4037,3.793108,0.1334170,0.44743991,150.3170,06/23.0/2024,2000,g 14.0,4.0
# From MPEC 2022-ED3
400P/PANSTARRS,e,10.9290,176.3996,238.8706,3.561939,0.1466136,0.40971909,180.0317,06/23.0/2024,2000,g 15.5,2.8
# From MPEC 2022-K19
401P/McNaught,e,12.8013,359.9120,309.4134,5.777847,0.0709668,0.57866459,117.9412,06/23.0/2024,2000,g 12.5,4.0
# From MPEC 2024-LE0
402P/LINEAR,e,30.8318,123.0658,326.8761,7.034755,0.0528239,0.43997726,48.6237,06/23.0/2024,2000,g  9.0,4.0
# From MPEC 2021-J28
